AQUA                    
1 27424U 02022A   26095.84744056  .00001455  00000+0  29976-3 0  9995
2 27424  98.4221  63.7168 0001445 114.5211 266.6869 14.62044454272702
CZ-4B R/B               
1 27432U 02024C   26095.74851106  .00000064  00000+0  56126-4 0  9993
2 27432  98.8779 149.0115 0049212 306.8673 162.1142 14.14552904233066
MIDORI II (ADEOS-II)    
1 27597U 02056A   26095.82534089  .00000431  00000+0  18737-3 0  9990
2 27597  98.7816  54.4987 0000319  23.0104 337.1091 14.29307387214174
H-2A R/B                
1 27601U 02056E   26095.78466637  .00000464  00000+0  17681-3 0  9997
2 27601  98.3250  55.1266 0071413  80.9928 341.0762 14.33781205217997
CZ-4B R/B               
1 28059U 03049C   26095.54664041  .00000505  00000+0  12705-3 0  9999
2 28059  98.6899  91.5099 0048731 148.5823 211.8300 14.55045925190502
CZ-2C R/B               
1 28222U 04012C   26095.76316274  .00072251  00000+0  64531-3 0  9999
2 28222  97.7158 163.6823 0013647 204.4828 155.5786 15.68061193208516
SL-16 R/B               
1 28353U 04021B   26095.68138336  .00000373  00000+0  21909-3 0  9994
2 28353  71.0013 175.8504 0005501 335.6750  24.4111 14.14600920126655
CZ-4B R/B               
1 28415U 04035C   26095.67067567  .00008962  00000+0  31102-3 0  9992
2 28415  97.3448 129.5920 0030390 230.5913 129.2636 15.29570637184033
CZ-2C R/B               
1 28480U 04046B   26095.76148722  .00000270  00000+0  11475-3 0  9994
2 28480  98.1975   9.0585 0140589  74.9436 286.7254 14.27003473112368
ARIANE 5 R/B            
1 28499U 04049H   26095.44486162  .00001313  00000+0  15095-3 0  9996
2 28499  98.2666 264.9111 0082813 264.2866  94.8901 14.85320748149761
CZ-2D R/B               
1 28738U 05024B   26095.56217403  .00051811  00000+0  57455-3 0  9993
2 28738  97.3565 111.7419 0001835 270.7702  89.3346 15.62803961143979
ALOS (DAICHI)           
1 28931U 06002A   26095.86903387  .00001786  00000+0  30681-3 0  9999
2 28931  98.1264  51.6978 0001211 115.6099 244.5232 14.69900381 77475
